NORAD_CAT_ID,OBJECT_NAME,OBJECT_TYPE,EPOCH,MEAN_MOTION,ECCENTRICITY,INCLINATION,RA_OF_ASC_NODE,ARG_OF_PERICENTER,MEAN_ANOMALY,BSTAR,MEAN_MOTION_DOT,MEAN_MOTION_DDOT,TLE_LINE0,TLE_LINE1,TLE_LINE2,SEMIMAJOR_AXIS,PERIOD,APOGEE,PERIGEE,DECAYED
53748.0,STARLINK-4669,PAYLOAD,2023-06-18 09:12:21,15.08830904,0.000102,53.2178,52.3906,89.4654,270.6455,-8.3247e-05,-1.612e-05,0.0,0 STARLINK-4669,1 53748U 22107BA  23169.38358303 -.00001612  00000-0 -83247-4 0  9993,2 53748  53.2178  52.3906 0001020  89.4654 270.6455 15.08830904 43553,6917.908,95.438,540.479,539.068,0.0
53748.0,STARLINK-4669,PAYLOAD,2023-06-18 18:44:39,15.08835324,0.000103,53.2168,50.6066,89.0223,271.0887,6.376e-05,7.27e-06,0.0,0 STARLINK-4669,1 53748U 22107BA  23169.78101779  .00000727  00000-0  63760-4 0  9992,2 53748  53.2168  50.6066 0001030  89.0223 271.0887 15.08835324 44397,6917.895,95.438,540.472,539.047,0.0
53748.0,STARLINK-4669,PAYLOAD,2023-06-19 01:06:12,15.0884077,9.73e-05,53.2164,49.4168,85.9193,274.191,0.00030429,4.558e-05,0.0,0 STARLINK-4669,1 53748U 22107BA  23170.04597768  .00004558  00000-0  30429-3 0  9991,2 53748  53.2164  49.4168 0000973  85.9193 274.1910 15.08840770 43658,6917.878,95.438,540.416,539.07,0.0
53748.0,STARLINK-4669,PAYLOAD,2023-06-19 09:03:08,15.08845504,9.52e-05,53.2164,47.9301,88.9203,271.1898,0.00045078,6.895e-05,0.0,0 STARLINK-4669,1 53748U 22107BA  23170.37717845  .00006895  00000-0  45078-3 0  9999,2 53748  53.2164  47.9301 0000952  88.9203 271.1898 15.08845504 44486,6917.864,95.437,540.387,539.07,0.0
53748.0,STARLINK-4669,PAYLOAD,2023-06-19 18:35:26,15.08857222,9.32e-05,53.216,46.1459,86.3222,273.7877,0.00070506,0.00010956,0.0,0 STARLINK-4669,1 53748U 22107BA  23170.77461687  .00010956  00000-0  70506-3 0  9990,2 53748  53.2160  46.1459 0000932  86.3222 273.7877 15.08857222 44540,6917.828,95.436,540.337,539.048,0.0
53748.0,STARLINK-4669,PAYLOAD,2023-06-20 00:56:58,15.0887007,9.18e-05,53.2158,44.9565,85.7296,274.3801,0.00090864,0.00014214,0.0,0 STARLINK-4669,1 53748U 22107BA  23171.03957118  .00014214  00000-0  90864-3 0  9999,2 53748  53.2158  44.9565 0000918  85.7296 274.3801 15.08870070 43807,6917.788,95.436,540.289,539.018,0.0
53748.0,STARLINK-4669,PAYLOAD,2023-06-20 08:53:54,15.08853544,0.0001206,53.2158,43.4696,70.7783,289.3339,0.00029107,4.349e-05,0.0,0 STARLINK-4669,1 53748U 22107BA  23171.37077311  .00004349  00000-0  29107-3 0  9994,2 53748  53.2158  43.4696 0001206  70.7783 289.3339 15.08853544 43856,6917.839,95.437,540.538,538.87,0.0
53748.0,STARLINK-4669,PAYLOAD,2023-06-20 20:01:36,15.08845885,0.000108,53.2159,41.3877,72.7165,287.3945,0.00020519,2.98e-05,0.0,0 STARLINK-4669,1 53748U 22107BA  23171.83445348  .00002980  00000-0  20519-3 0  9991,2 53748  53.2159  41.3877 0001080  72.7165 287.3945 15.08845885 44706,6917.862,95.437,540.475,538.98,0.0
53748.0,STARLINK-4669,PAYLOAD,2023-06-20 21:36:59,15.08844306,0.0001062,53.2161,41.0894,77.002,283.1091,0.00015715,2.214e-05,0.0,0 STARLINK-4669,1 53748U 22107BA  23171.90069340  .00002214  00000-0  15715-3 0  9995,2 53748  53.2161  41.0894 0001062  77.0020 283.1091 15.08844306 43930,6917.867,95.437,540.467,538.998,0.0
53748.0,STARLINK-4669,PAYLOAD,2023-06-21 18:17:00,15.08841898,0.000114,53.2166,37.2228,75.2377,284.8741,0.00024705,3.646e-05,0.0,0 STARLINK-4669,1 53748U 22107BA  23172.76181572  .00003646  00000-0  24705-3 0  9991,2 53748  53.2166  37.2228 0001140  75.2377 284.8741 15.08841898 44063,6917.875,95.437,540.528,538.951,0.0
53748.0,STARLINK-4669,PAYLOAD,2023-06-21 19:52:23,15.08844024,0.0001107,53.2163,36.9272,66.9039,293.207,0.00018541,2.665e-05,0.0,0 STARLINK-4669,1 53748U 22107BA  23172.82805534  .00002665  00000-0  18541-3 0  9990,2 53748  53.2163  36.9272 0001107  66.9039 293.2070 15.08844024 44850,6917.868,95.437,540.499,538.967,0.0
53748.0,STARLINK-4669,PAYLOAD,2023-06-22 18:07:48,15.08841703,0.0001027,53.2163,32.7632,73.7895,286.321,0.00018594,2.673e-05,0.0,0 STARLINK-4669,1 53748U 22107BA  23173.75541681  .00002673  00000-0  18594-3 0  9990,2 53748  53.2163  32.7632 0001027  73.7895 286.3210 15.08841703 44211,6917.875,95.437,540.451,539.03,0.0
53748.0,STARLINK-4669,PAYLOAD,2023-06-23 00:29:20,15.08851948,9.92e-05,53.2165,31.5739,77.9047,282.2056,0.00035731,5.405e-05,0.0,0 STARLINK-4669,1 53748U 22107BA  23174.02037277  .00005405  00000-0  35731-3 0  9990,2 53748  53.2165  31.5739 0000992  77.9047 282.2056 15.08851948 44252,6917.844,95.437,540.395,539.023,0.0
53748.0,STARLINK-4669,PAYLOAD,2023-06-23 17:58:34,15.08842695,9.3e-05,53.2164,28.3033,84.3398,275.77,9.8006e-05,1.272e-05,0.0,0 STARLINK-4669,1 53748U 22107BA  23174.74901563  .00001272  00000-0  98006-4 0  9990,2 53748  53.2164  28.3033 0000930  84.3398 275.7700 15.08842695 44369,6917.872,95.437,540.381,539.094,0.0
53748.0,STARLINK-4669,PAYLOAD,2023-06-24 16:13:59,15.08837049,0.0001318,53.2163,24.1401,98.2425,261.8717,-5.5366e-05,-1.169e-05,0.0,0 STARLINK-4669,1 53748U 22107BA  23175.67637750 -.00001169  00000-0 -55366-4 0  9996,2 53748  53.2163  24.1401 0001318  98.2425 261.8717 15.08837049 44504,6917.889,95.438,540.666,538.843,0.0
53748.0,STARLINK-4669,PAYLOAD,2023-06-26 00:01:41,15.08848088,0.0001037,53.2167,18.1931,103.9909,256.1198,0.00025707,3.807e-05,0.0,0 STARLINK-4669,1 53748U 22107BA  23177.00117605  .00003807  00000-0  25707-3 0  9991,2 53748  53.2167  18.1931 0001037 103.9909 256.1198 15.08848088 44705,6917.856,95.437,540.438,539.003,0.0
53748.0,STARLINK-4669,PAYLOAD,2023-06-26 06:23:14,15.08838477,0.0001169,53.2164,17.0034,88.3845,271.7281,0.00014756,2.061e-05,0.0,0 STARLINK-4669,1 53748U 22107BA  23177.26614106  .00002061  00000-0  14756-3 0  9990,2 53748  53.2164  17.0034 0001169  88.3845 271.7281 15.08838477 44746,6917.885,95.438,540.559,538.941,0.0
53748.0,STARLINK-4669,PAYLOAD,2023-06-27 18:57:07,15.08831785,9.97e-05,53.2169,10.1644,95.7311,264.3795,9.8554e-06,-1.31e-06,0.0,0 STARLINK-4669,1 53748U 22107BA  23178.78966869 -.00000131  00000-0  98554-5 0  9991,2 53748  53.2169  10.1644 0000997  95.7311 264.3795 15.08831785 44978,6917.905,95.438,540.46,539.081,0.0
53748.0,STARLINK-4669,PAYLOAD,2023-06-28 18:47:54,15.08847191,9.32e-05,53.2166,5.704,85.0817,275.0281,0.00021955,3.209e-05,0.0,0 STARLINK-4669,1 53748U 22107BA  23179.78326521  .00003209  00000-0  21955-3 0  9994,2 53748  53.2166   5.7040 0000932  85.0817 275.0281 15.08847191 45122,6917.858,95.437,540.368,539.079,0.0
53748.0,STARLINK-4669,PAYLOAD,2023-06-29 18:38:41,15.08845002,9.74e-05,53.2164,1.2432,85.4388,274.6716,0.00024352,3.59e-05,0.0,0 STARLINK-4669,1 53748U 22107BA  23180.77686554  .00003590  00000-0  24352-3 0  9997,2 53748  53.2164   1.2432 0000974  85.4388 274.6716 15.08845002 45272,6917.865,95.437,540.404,539.056,0.0
53748.0,STARLINK-4669,PAYLOAD,2023-06-30 15:18:41,15.08839983,9.37e-05,53.2167,357.3765,102.4171,257.6926,1.672e-05,-2.2e-07,0.0,0 STARLINK-4669,1 53748U 22107BA  23181.63798565 -.00000022  00000-0  16720-4 0  9998,2 53748  53.2167 357.3765 0000937 102.4171 257.6926 15.08839983 45408,6917.88,95.438,540.394,539.097,0.0
53748.0,STARLINK-4669,PAYLOAD,2023-07-01 18:20:15,15.08839475,9.78e-05,53.2185,352.3242,93.8882,266.2222,6.0523e-05,6.76e-06,0.0,0 STARLINK-4669,1 53748U 22107BA  23182.76406635  .00000676  00000-0  60523-4 0  9991,2 53748  53.2185 352.3242 0000978  93.8882 266.2222 15.08839475 45579,6917.882,95.438,540.424,539.07,0.0
53748.0,STARLINK-4669,PAYLOAD,2023-07-02 21:21:48,15.08842845,0.0001068,53.218,347.2671,105.1486,254.9625,7.5809e-05,9.19e-06,0.0,0 STARLINK-4669,1 53748U 22107BA  23183.89014522  .00000919  00000-0  75809-4 0  9999,2 53748  53.2180 347.2671 0001068 105.1486 254.9625 15.08842845 45746,6917.872,95.437,540.476,538.998,0.0
53748.0,STARLINK-4669,PAYLOAD,2023-07-03 03:43:21,15.08837729,9.78e-05,53.2175,346.0772,81.5928,278.5175,3.3258e-05,2.42e-06,0.0,0 STARLINK-4669,1 53748U 22107BA  23184.15511012  .00000242  00000-0  33258-4 0  9996,2 53748  53.2175 346.0772 0000978  81.5928 278.5175 15.08837729 45787,6917.887,95.438,540.429,539.076,0.0
53748.0,STARLINK-4669,PAYLOAD,2023-07-03 19:37:12,15.08843388,9.84e-05,53.2175,343.1038,91.0309,269.0796,0.00010061,1.314e-05,0.0,0 STARLINK-4669,1 53748U 22107BA  23184.81750642  .00001314  00000-0  10061-3 0  9990,2 53748  53.2175 343.1038 0000984  91.0309 269.0796 15.08843388 45889,6917.87,95.437,540.416,539.054,0.0
53748.0,STARLINK-4669,PAYLOAD,2023-07-04 22:38:45,15.08847686,0.0001053,53.2178,338.0484,85.7147,274.3965,0.00012644,1.725e-05,0.0,0 STARLINK-4669,1 53748U 22107BA  23185.94358412  .00001725  00000-0  12644-3 0  9999,2 53748  53.2178 338.0484 0001053  85.7147 274.3965 15.08847686 46050,6917.857,95.437,540.45,538.993,0.0
53748.0,STARLINK-4669,PAYLOAD,2023-07-05 03:24:56,15.08830307,6.07e-05,53.2177,337.1564,83.8541,276.252,-2.4852e-05,-6.83e-06,0.0,0 STARLINK-4669,1 53748U 22107BA  23186.14231712 -.00000683  00000-0 -24852-4 0  9994,2 53748  53.2177 337.1564 0000607  83.8541 276.2520 15.08830307 46082,6917.91,95.438,540.195,539.355,0.0
53748.0,STARLINK-4669,PAYLOAD,2023-07-05 17:43:23,15.08842523,9.61e-05,53.2177,334.4795,89.6959,270.4143,3.163e-05,2.16e-06,0.0,0 STARLINK-4669,1 53748U 22107BA  23186.73847117  .00000216  00000-0  31630-4 0  9993,2 53748  53.2177 334.4795 0000961  89.6959 270.4143 15.08842523 46178,6917.873,95.437,540.402,539.073,0.0
53748.0,STARLINK-4669,PAYLOAD,2023-07-07 03:06:29,15.08849995,9.36e-05,53.2171,328.2357,83.3708,276.7391,0.00010683,1.413e-05,0.0,0 STARLINK-4669,1 53748U 22107BA  23188.12950567  .00001413  00000-0  10683-3 0  9996,2 53748  53.2171 328.2357 0000936  83.3708 276.7391 15.08849995 46389,6917.85,95.437,540.362,539.067,0.0
53748.0,STARLINK-4669,PAYLOAD,2023-07-07 09:28:02,15.08837121,0.0001104,53.2174,327.0467,70.7241,289.3871,0.00022565,3.305e-05,0.0,0 STARLINK-4669,1 53748U 22107BA  23188.39447323  .00003305  00000-0  22565-3 0  9990,2 53748  53.2174 327.0467 0001104  70.7241 289.3871 15.08837121 46427,6917.889,95.438,540.518,538.99,0.0
